NORAD_CAT_ID,OBJECT_NAME,OBJECT_TYPE,EPOCH,MEAN_MOTION,ECCENTRICITY,INCLINATION,RA_OF_ASC_NODE,ARG_OF_PERICENTER,MEAN_ANOMALY,BSTAR,MEAN_MOTION_DOT,MEAN_MOTION_DDOT,TLE_LINE0,TLE_LINE1,TLE_LINE2,SEMIMAJOR_AXIS,PERIOD,APOGEE,PERIGEE,DECAYED
51115.0,STARLINK-3397,PAYLOAD,2023-11-05 01:23:00,15.08850049,0.0001341,53.2161,170.2004,95.519,264.5955,0.00027141,4.035e-05,0.0,0 STARLINK-3397,1 51115U 22005M   23309.05764012  .00004035  00000-0  27141-3 0  9994,2 51115  53.2161 170.2004 0001341  95.5190 264.5955 15.08850049100811,6917.85,95.437,540.642,538.787,0.0
51115.0,STARLINK-3397,PAYLOAD,2023-11-05 07:44:32,15.08848314,0.0001263,53.2153,169.0103,91.3079,268.8058,0.00027009,4.014e-05,0.0,0 STARLINK-3397,1 51115U 22005M   23309.32259967  .00004014  00000-0  27009-3 0  9992,2 51115  53.2153 169.0103 0001263  91.3079 268.8058 15.08848314 99743,6917.855,95.437,540.594,538.846,0.0
51115.0,STARLINK-3397,PAYLOAD,2023-11-05 22:03:00,15.08875988,0.000142,53.2165,166.3334,84.4452,275.6703,0.00088528,0.00013843,0.0,0 STARLINK-3397,1 51115U 22005M   23309.91875085  .00013843  00000-0  88528-3 0  9995,2 51115  53.2165 166.3334 0001420  84.4452 275.6703 15.08875988 99835,6917.77,95.435,540.618,538.653,0.0
51115.0,STARLINK-3397,PAYLOAD,2023-11-05 23:38:23,15.0888588,0.0001513,53.2168,166.0365,87.136,272.9806,0.0013041,0.00020554,0.0,0 STARLINK-3397,1 51115U 22005M   23309.98498905  .00020554  00000-0  13041-2 0  9998,2 51115  53.2168 166.0365 0001513  87.1360 272.9806 15.08885880100952,6917.74,95.435,540.652,538.559,0.0
51115.0,STARLINK-3397,PAYLOAD,2023-11-06 07:35:18,15.08873665,0.0001699,53.216,164.5511,76.0535,284.0646,0.00083782,0.00013083,0.0,0 STARLINK-3397,1 51115U 22005M   23310.31618757  .00013083  00000-0  83782-3 0  9995,2 51115  53.2160 164.5511 0001699  76.0535 284.0646 15.08873665101007,6917.777,95.435,540.818,538.467,0.0
51115.0,STARLINK-3397,PAYLOAD,2023-11-06 18:43:00,15.08848149,0.0001229,53.2141,162.4677,76.7638,283.3492,-0.00012763,-2.319e-05,0.0,0 STARLINK-3397,1 51115U 22005M   23310.77986573 -.00002319  00000-0 -12763-3 0  9992,2 51115  53.2141 162.4677 0001229  76.7638 283.3492 15.08848149101073,6917.855,95.437,540.571,538.87,0.0
51115.0,STARLINK-3397,PAYLOAD,2023-11-06 21:53:46,15.0884556,0.0001263,53.2148,161.8729,71.392,288.7209,-0.00011574,-2.13e-05,0.0,0 STARLINK-3397,1 51115U 22005M   23310.91234612 -.00002130  00000-0 -11574-3 0  9998,2 51115  53.2148 161.8729 0001263  71.3920 288.7209 15.08845560 99989,6917.863,95.437,540.602,538.855,0.0
51115.0,STARLINK-3397,PAYLOAD,2023-11-07 07:26:06,15.08829131,0.0001227,53.2144,160.0884,82.3853,277.7279,-0.00013286,-2.401e-05,0.0,0 STARLINK-3397,1 51115U 22005M   23311.30979218 -.00002401  00000-0 -13286-3 0  9993,2 51115  53.2144 160.0884 0001227  82.3853 277.7279 15.08829131101159,6917.914,95.438,540.627,538.93,0.0
51115.0,STARLINK-3397,PAYLOAD,2023-11-07 20:09:12,15.08802997,0.0001075,53.2159,157.7103,87.1331,272.9784,-0.00042389,-7.021e-05,0.0,0 STARLINK-3397,1 51115U 22005M   23311.83972653 -.00007021  00000-0 -42389-3 0  9996,2 51115  53.2159 157.7103 0001075  87.1331 272.9784 15.08802997101235,6917.993,95.44,540.602,539.115,0.0
51115.0,STARLINK-3397,PAYLOAD,2023-11-08 20:00:00,15.08836839,9.96e-05,53.2152,153.2537,65.5998,294.5098,0.00091614,0.00014321,0.0,0 STARLINK-3397,1 51115U 22005M   23312.83333584  .00014321  00000-0  91614-3 0  9995,2 51115  53.2152 153.2537 0000996  65.5998 294.5098 15.08836839101386,6917.89,95.438,540.444,539.066,0.0
51115.0,STARLINK-3397,PAYLOAD,2023-11-09 16:40:00,15.08849585,9.64e-05,53.2151,149.3893,74.7023,285.4075,0.00068624,0.00010653,0.0,0 STARLINK-3397,1 51115U 22005M   23313.69445462  .00010653  00000-0  68624-3 0  9998,2 51115  53.2151 149.3893 0000964  74.7023 285.4075 15.08849585101513,6917.851,95.437,540.383,539.049,0.0
51115.0,STARLINK-3397,PAYLOAD,2023-11-09 19:50:47,15.08858223,0.0001339,53.2155,148.7913,78.8405,281.2737,0.0007015,0.000109,0.0,0 STARLINK-3397,1 51115U 22005M   23313.82693313  .00010900  00000-0  70150-3 0  9995,2 51115  53.2155 148.7913 0001339  78.8405 281.2737 15.08858223100426,6917.825,95.436,540.616,538.763,0.0
51115.0,STARLINK-3397,PAYLOAD,2023-11-09 23:01:33,15.08864334,0.0001252,53.2151,148.196,85.0229,275.0906,0.00069327,0.0001077,0.0,0 STARLINK-3397,1 51115U 22005M   23313.95941019  .00010770  00000-0  69327-3 0  9997,2 51115  53.2151 148.1960 0001252  85.0229 275.0906 15.08864334101550,6917.806,95.436,540.537,538.805,0.0
51115.0,STARLINK-3397,PAYLOAD,2023-11-10 19:41:33,15.08850224,0.0001372,53.2164,144.326,81.7975,278.3172,0.00018147,2.602e-05,0.0,0 STARLINK-3397,1 51115U 22005M   23314.82052873  .00002602  00000-0  18147-3 0  9994,2 51115  53.2164 144.3260 0001372  81.7975 278.3172 15.08850224101687,6917.849,95.437,540.663,538.765,0.0
51115.0,STARLINK-3397,PAYLOAD,2023-11-11 13:10:48,15.08843689,0.0001394,53.2155,141.0562,82.846,277.2691,-1.3459e-05,-5.02e-06,0.0,0 STARLINK-3397,1 51115U 22005M   23315.54916885 -.00000502  00000-0 -13459-4 0  9997,2 51115  53.2155 141.0562 0001394  82.8460 277.2691 15.08843689100681,6917.869,95.437,540.698,538.77,0.0
51115.0,STARLINK-3397,PAYLOAD,2023-11-11 19:32:20,15.0884595,0.0001296,53.2163,139.8679,88.1533,271.9607,3.3704e-05,2.49e-06,0.0,0 STARLINK-3397,1 51115U 22005M   23315.81412949  .00000249  00000-0  33704-4 0  9990,2 51115  53.2163 139.8679 0001296  88.1533 271.9607 15.08845950101834,6917.862,95.437,540.624,538.831,0.0
51115.0,STARLINK-3397,PAYLOAD,2023-11-12 11:26:12,15.0883703,0.0001291,53.2162,136.8948,89.3236,270.7904,4.7907e-05,4.75e-06,0.0,0 STARLINK-3397,1 51115U 22005M   23316.47653355  .00000475  00000-0  47907-4 0  9992,2 51115  53.2162 136.8948 0001291  89.3236 270.7904 15.08837030101935,6917.889,95.438,540.648,538.861,0.0
51115.0,STARLINK-3397,PAYLOAD,2023-11-12 19:23:08,15.08838268,0.0001282,53.2163,135.408,88.798,271.3159,4.7512e-05,4.68e-06,0.0,0 STARLINK-3397,1 51115U 22005M   23316.80773293  .00000468  00000-0  47512-4 0  9997,2 51115  53.2163 135.4080 0001282  88.7980 271.3159 15.08838268100872,6917.886,95.438,540.638,538.864,0.0
51115.0,STARLINK-3397,PAYLOAD,2023-11-13 04:55:26,15.08838119,0.0001285,53.2165,133.6239,88.1856,271.9284,5.0241e-05,5.12e-06,0.0,0 STARLINK-3397,1 51115U 22005M   23317.20517349  .00000512  00000-0  50241-4 0  9993,2 51115  53.2165 133.6239 0001285  88.1856 271.9284 15.08838119100936,6917.886,95.438,540.64,538.862,0.0
51115.0,STARLINK-3397,PAYLOAD,2023-11-13 20:49:18,15.08838908,0.0001273,53.2166,130.6506,88.7581,271.3557,5.3056e-05,5.57e-06,0.0,0 STARLINK-3397,1 51115U 22005M   23317.86757391  .00000557  00000-0  53056-4 0  9994,2 51115  53.2166 130.6506 0001273  88.7581 271.3557 15.08838908101034,6917.884,95.438,540.629,538.868,0.0
51115.0,STARLINK-3397,PAYLOAD,2023-11-14 11:07:46,15.08839951,0.0001302,53.2172,127.9744,87.7777,272.3364,8.6304e-05,1.086e-05,0.0,0 STARLINK-3397,1 51115U 22005M   23318.46373269  .00001086  00000-0  86304-4 0  9999,2 51115  53.2172 127.9744 0001302  87.7777 272.3364 15.08839951101129,6917.881,95.438,540.646,538.845,0.0
51115.0,STARLINK-3397,PAYLOAD,2023-11-14 14:18:32,15.08840609,0.0001262,53.2164,127.3793,86.4948,273.6189,9.5014e-05,1.225e-05,0.0,0 STARLINK-3397,1 51115U 22005M   23318.59621201  .00001225  00000-0  95014-4 0  9998,2 51115  53.2164 127.3793 0001262  86.4948 273.6189 15.08840609101142,6917.879,95.438,540.617,538.87,0.0
51115.0,STARLINK-3397,PAYLOAD,2023-11-15 17:20:05,15.088433,0.0001371,53.2159,122.3224,93.7378,266.3771,8.501e-05,1.065e-05,0.0,0 STARLINK-3397,1 51115U 22005M   23319.72228953  .00001065  00000-0  85010-4 0  9998,2 51115  53.2159 122.3224 0001371  93.7378 266.3771 15.08843300102428,6917.87,95.437,540.684,538.787,0.0
51115.0,STARLINK-3397,PAYLOAD,2023-11-15 20:30:52,15.088444,0.0001449,53.2159,121.7281,94.9727,265.1431,6.7637e-05,7.89e-06,0.0,0 STARLINK-3397,1 51115U 22005M   23319.85476964  .00000789  00000-0  67637-4 0  9996,2 51115  53.2159 121.7281 0001449  94.9727 265.1431 15.08844400101332,6917.867,95.437,540.734,538.73,0.0
51115.0,STARLINK-3397,PAYLOAD,2023-11-16 17:10:53,15.08837239,0.0001298,53.2161,117.8623,95.1602,264.9538,-7.0861e-06,-4.01e-06,0.0,0 STARLINK-3397,1 51115U 22005M   23320.71589566 -.00000401  00000-0 -70861-5 0  9993,2 51115  53.2161 117.8623 0001298  95.1602 264.9538 15.08837239102572,6917.889,95.438,540.652,538.856,0.0
51115.0,STARLINK-3397,PAYLOAD,2023-11-17 17:01:40,15.0883919,0.0001409,53.2187,113.4018,87.3328,272.7826,6.987e-05,8.24e-06,0.0,0 STARLINK-3397,1 51115U 22005M   23321.70949164  .00000824  00000-0  69870-4 0  9991,2 51115  53.2187 113.4018 0001409  87.3328 272.7826 15.08839190101611,6917.883,95.438,540.723,538.773,0.0
51115.0,STARLINK-3397,PAYLOAD,2023-11-18 10:30:54,15.0883769,0.000131,53.2164,110.1317,88.3185,271.7957,1.2053e-05,-9.6e-07,0.0,0 STARLINK-3397,1 51115U 22005M   23322.43813592 -.00000096  00000-0  12053-4 0  9990,2 51115  53.2164 110.1317 0001310  88.3185 271.7957 15.08837690102837,6917.887,95.438,540.659,538.846,0.0
51115.0,STARLINK-3397,PAYLOAD,2023-11-18 16:52:27,15.0884441,8.83e-05,53.2182,108.9426,77.1823,282.9268,-6.059e-05,-1.252e-05,0.0,0 STARLINK-3397,1 51115U 22005M   23322.70309338 -.00001252  00000-0 -60590-4 0  9993,2 51115  53.2182 108.9426 0000883  77.1823 282.9268 15.08844410101760,6917.867,95.437,540.343,539.121,0.0
51115.0,STARLINK-3397,PAYLOAD,2023-11-19 13:32:28,15.08839236,0.0001369,53.2178,105.0765,88.7994,271.3155,7.113e-05,8.44e-06,0.0,0 STARLINK-3397,1 51115U 22005M   23323.56421453  .00000844  00000-0  71130-4 0  9997,2 51115  53.2178 105.0765 0001369  88.7994 271.3155 15.08839236101897,6917.883,95.438,540.695,538.801,0.0
51115.0,STARLINK-3397,PAYLOAD,2023-11-19 16:43:14,15.0884133,0.0001294,53.2175,104.4819,87.9125,272.2015,8.4596e-05,1.059e-05,0.0,0 STARLINK-3397,1 51115U 22005M   23323.69669289  .00001059  00000-0  84596-4 0  9991,2 51115  53.2175 104.4819 0001294  87.9125 272.2015 15.08841330103021,6917.876,95.437,540.636,538.846,0.0
